NORAD_CAT_ID,OBJECT_NAME,OBJECT_TYPE,EPOCH,MEAN_MOTION,ECCENTRICITY,INCLINATION,RA_OF_ASC_NODE,ARG_OF_PERICENTER,MEAN_ANOMALY,BSTAR,MEAN_MOTION_DOT,MEAN_MOTION_DDOT,TLE_LINE0,TLE_LINE1,TLE_LINE2,SEMIMAJOR_AXIS,PERIOD,APOGEE,PERIGEE,DECAYED
54199.0,STARLINK-5244,PAYLOAD,2023-05-25 16:24:05,15.08842423,9.36e-05,53.2178,248.5386,93.5981,266.5118,2.5583e-05,1.19e-06,0.0,0 STARLINK-5244,1 54199U 22141AU  23145.68339352  .00000119  00000-0  25583-4 0  9990,2 54199  53.2178 248.5386 0000936  93.5981 266.5118 15.08842423 32398,6917.873,95.437,540.385,539.09,0.0
54199.0,STARLINK-5244,PAYLOAD,2023-05-26 13:04:06,15.08843794,9.94e-05,53.2185,244.6703,96.2965,263.814,-6.3878e-05,-1.304e-05,0.0,0 STARLINK-5244,1 54199U 22141AU  23146.54451633 -.00001304  00000-0 -63878-4 0  9991,2 54199  53.2185 244.6703 0000994  96.2965 263.8140 15.08843794 32298,6917.869,95.437,540.421,539.046,0.0
54199.0,STARLINK-5244,PAYLOAD,2023-05-27 09:44:09,15.0881824,0.0001115,53.2178,240.8062,104.477,255.6346,-0.0001393,-2.503e-05,0.0,0 STARLINK-5244,1 54199U 22141AU  23147.40566304 -.00002503  00000-0 -13930-3 0  9994,2 54199  53.2178 240.8062 0001115 104.4770 255.6346 15.08818240 32653,6917.947,95.439,540.583,539.041,0.0
54199.0,STARLINK-5244,PAYLOAD,2023-05-27 12:54:55,15.08817054,0.00011,53.2175,240.2118,100.7568,259.3548,-0.00014133,-2.535e-05,0.0,0 STARLINK-5244,1 54199U 22141AU  23147.53814578 -.00002535  00000-0 -14133-3 0  9998,2 54199  53.2175 240.2118 0001100 100.7568 259.3548 15.08817054 32448,6917.951,95.439,540.577,539.055,0.0
54199.0,STARLINK-5244,PAYLOAD,2023-05-28 11:10:18,15.08836067,0.0001295,53.2167,236.0535,59.7175,300.3946,4.8867e-05,4.9e-06,0.0,0 STARLINK-5244,1 54199U 22141AU  23148.46549389  .00000490  00000-0  48867-4 0  9994,2 54199  53.2167 236.0535 0001295  59.7175 300.3946 15.08836067 32812,6917.892,95.438,540.653,538.862,0.0
54199.0,STARLINK-5244,PAYLOAD,2023-05-28 12:45:41,15.08841848,0.0001183,53.2168,235.7548,69.4945,290.6174,7.9002e-05,9.7e-06,0.0,0 STARLINK-5244,1 54199U 22141AU  23148.53172896  .00000970  00000-0  79002-4 0  9995,2 54199  53.2168 235.7548 0001183  69.4945 290.6174 15.08841848 32820,6917.875,95.437,540.558,538.921,0.0
54199.0,STARLINK-5244,PAYLOAD,2023-05-29 11:01:04,15.08846189,0.0001136,53.2177,231.5902,69.7141,290.3974,0.0002569,3.804e-05,0.0,0 STARLINK-5244,1 54199U 22141AU  23149.45907943  .00003804  00000-0  25690-3 0  9998,2 54199  53.2177 231.5902 0001136  69.7141 290.3974 15.08846189 32735,6917.861,95.437,540.512,538.941,0.0
54199.0,STARLINK-5244,PAYLOAD,2023-05-29 23:44:09,15.08848713,0.0001182,53.2166,229.2142,76.9765,283.1359,5.0412e-05,5.15e-06,0.0,0 STARLINK-5244,1 54199U 22141AU  23149.98900266  .00000515  00000-0  50412-4 0  9994,2 54199  53.2166 229.2142 0001182  76.9765 283.1359 15.08848713 33043,6917.854,95.437,540.536,538.901,0.0
54199.0,STARLINK-5244,PAYLOAD,2023-05-30 09:16:29,15.08841359,0.0001169,53.2161,227.4297,85.3201,274.7925,-0.00013445,-2.427e-05,0.0,0 STARLINK-5244,1 54199U 22141AU  23150.38645305 -.00002427  00000-0 -13445-3 0  9990,2 54199  53.2161 227.4297 0001169  85.3201 274.7925 15.08841359 33104,6917.876,95.437,540.55,538.933,0.0
54199.0,STARLINK-5244,PAYLOAD,2023-05-30 14:02:38,15.08846569,0.0001084,53.2163,226.537,85.6898,274.4218,-0.0001017,-1.906e-05,0.0,0 STARLINK-5244,1 54199U 22141AU  23150.58516741 -.00001906  00000-0 -10170-3 0  9996,2 54199  53.2163 226.5370 0001084  85.6898 274.4218 15.08846569 32906,6917.86,95.437,540.475,538.975,0.0
54199.0,STARLINK-5244,PAYLOAD,2023-05-31 12:18:01,15.08849881,0.0001121,53.2164,222.3743,94.9489,265.1631,-0.00011269,-2.081e-05,0.0,0 STARLINK-5244,1 54199U 22141AU  23151.51252090 -.00002081  00000-0 -11269-3 0  9999,2 54199  53.2164 222.3743 0001121  94.9489 265.1631 15.08849881 33048,6917.85,95.437,540.491,538.94,0.0
54199.0,STARLINK-5244,PAYLOAD,2023-05-31 21:50:19,15.08877301,0.0001057,53.2162,220.5898,94.041,266.0703,-0.00046627,-7.708e-05,0.0,0 STARLINK-5244,1 54199U 22141AU  23151.90995114 -.00007708  00000-0 -46627-3 0  9990,2 54199  53.2162 220.5898 0001057  94.0410 266.0703 15.08877301 33105,6917.766,95.435,540.363,538.9,0.0
54199.0,STARLINK-5244,PAYLOAD,2023-06-01 10:33:25,15.08837792,0.0001138,53.2159,218.211,80.672,279.4401,6.2105e-05,7.01e-06,0.0,0 STARLINK-5244,1 54199U 22141AU  23152.43988089  .00000701  00000-0  62105-4 0  9996,2 54199  53.2159 218.2110 0001138  80.6720 279.4401 15.08837792 33188,6917.887,95.438,540.539,538.965,0.0
54199.0,STARLINK-5244,PAYLOAD,2023-06-01 21:41:07,15.08840464,0.0001172,53.2164,216.1297,79.7277,280.3848,2.9601e-05,1.83e-06,0.0,0 STARLINK-5244,1 54199U 22141AU  23152.90356013  .00000183  00000-0  29601-4 0  9992,2 54199  53.2164 216.1297 0001172  79.7277 280.3848 15.08840464 33255,6917.879,95.438,540.555,538.933,0.0
54199.0,STARLINK-5244,PAYLOAD,2023-06-02 10:24:13,15.08836925,0.0001272,53.2169,213.7517,78.0818,282.0317,-4.9621e-06,-3.67e-06,0.0,0 STARLINK-5244,1 54199U 22141AU  23153.43348420 -.00000367  00000-0 -49621-5 0  9995,2 54199  53.2169 213.7517 0001272  78.0818 282.0317 15.08836925 33338,6917.89,95.438,540.635,538.875,0.0
54199.0,STARLINK-5244,PAYLOAD,2023-06-02 21:31:54,15.08838755,0.000128,53.2168,211.6704,77.2302,282.8833,-3.2075e-06,-3.39e-06,0.0,0 STARLINK-5244,1 54199U 22141AU  23153.89716328 -.00000339  00000-0 -32075-5 0  9995,2 54199  53.2168 211.6704 0001280  77.2302 282.8833 15.08838755 33402,6917.884,95.438,540.635,538.864,0.0
54199.0,STARLINK-5244,PAYLOAD,2023-06-03 10:15:00,15.08836835,0.0001184,53.2163,209.2901,86.9732,273.1395,-2.9861e-05,-7.63e-06,0.0,0 STARLINK-5244,1 54199U 22141AU  23154.42708534 -.00000763  00000-0 -29861-4 0  9994,2 54199  53.2163 209.2901 0001184  86.9732 273.1395 15.08836835 33487,6917.89,95.438,540.574,538.936,0.0
54199.0,STARLINK-5244,PAYLOAD,2023-06-04 10:05:46,15.08840906,0.0001111,53.2164,204.8292,93.4018,266.7101,4.1932e-05,3.8e-06,0.0,0 STARLINK-5244,1 54199U 22141AU  23155.42067992  .00000380  00000-0  41932-4 0  9997,2 54199  53.2164 204.8292 0001111  93.4018 266.7101 15.08840906 33861,6917.878,95.437,540.511,538.974,0.0
54199.0,STARLINK-5244,PAYLOAD,2023-06-04 13:16:32,15.08841822,0.0001114,53.2163,204.2342,94.9547,265.1573,4.6138e-05,4.47e-06,0.0,0 STARLINK-5244,1 54199U 22141AU  23155.55315890  .00000447  00000-0  46138-4 0  9991,2 54199  53.2163 204.2342 0001114  94.9547 265.1573 15.08841822 33657,6917.875,95.437,540.51,538.969,0.0
54199.0,STARLINK-5244,PAYLOAD,2023-06-05 03:35:01,15.08833548,0.0001155,53.2158,201.5568,101.4867,258.6255,-5.0739e-06,-3.69e-06,0.0,0 STARLINK-5244,1 54199U 22141AU  23156.14932661 -.00000369  00000-0 -50739-5 0  9996,2 54199  53.2158 201.5568 0001155 101.4867 258.6255 15.08833548 33970,6917.9,95.438,540.564,538.966,0.0
54199.0,STARLINK-5244,PAYLOAD,2023-06-05 13:07:20,15.08835351,0.0001169,53.2158,199.7727,103.2998,256.8124,8.3781e-06,-1.54e-06,0.0,0 STARLINK-5244,1 54199U 22141AU  23156.54676589 -.00000154  00000-0  83781-5 0  9998,2 54199  53.2158 199.7727 0001169 103.2998 256.8124 15.08835351 33806,6917.895,95.438,540.568,538.951,0.0
54199.0,STARLINK-5244,PAYLOAD,2023-06-06 08:11:58,15.08836418,0.000116,53.2157,196.2044,103.5014,256.6107,-3.2394e-05,-8.03e-06,0.0,0 STARLINK-5244,1 54199U 22141AU  23157.34164829 -.00000803  00000-0 -32394-4 0  9991,2 54199  53.2157 196.2044 0001160 103.5014 256.6107 15.08836418 34155,6917.891,95.438,540.559,538.954,0.0
54199.0,STARLINK-5244,PAYLOAD,2023-06-07 08:02:45,15.0883387,0.0001053,53.2163,191.7462,95.7493,264.3619,1.6281e-05,-2.9e-07,0.0,0 STARLINK-5244,1 54199U 22141AU  23158.33525069 -.00000029  00000-0  16281-4 0  9994,2 54199  53.2163 191.7462 0001053  95.7493 264.3619 15.08833870 34074,6917.899,95.438,540.493,539.036,0.0
54199.0,STARLINK-5244,PAYLOAD,2023-06-07 19:10:27,15.08836811,0.0001052,53.216,189.6639,90.8666,269.2446,2.1637e-05,5.7e-07,0.0,0 STARLINK-5244,1 54199U 22141AU  23158.79892959  .00000057  00000-0  21637-4 0  9990,2 54199  53.2160 189.6639 0001052  90.8666 269.2446 15.08836811 34148,6917.89,95.438,540.483,539.027,0.0
54199.0,STARLINK-5244,PAYLOAD,2023-06-07 22:21:13,15.088355,0.0001025,53.2161,189.0695,90.9422,269.1687,4.7268e-05,4.65e-06,0.0,0 STARLINK-5244,1 54199U 22141AU  23158.93140975  .00000465  00000-0  47268-4 0  9991,2 54199  53.2161 189.0695 0001025  90.9422 269.1687 15.08835500 34393,6917.894,95.438,540.468,539.05,0.0
54199.0,STARLINK-5244,PAYLOAD,2023-06-08 09:28:55,15.08838076,0.0001044,53.2161,186.9882,91.6017,268.5094,4.0528e-05,3.57e-06,0.0,0 STARLINK-5244,1 54199U 22141AU  23159.39508909  .00000357  00000-0  40528-4 0  9999,2 54199  53.2161 186.9882 0001044  91.6017 268.5094 15.08838076 34235,6917.886,95.438,540.473,539.029,0.0
54199.0,STARLINK-5244,PAYLOAD,2023-06-09 07:44:19,15.08834975,0.0001058,53.2156,182.8243,87.3277,272.7836,1.3011e-05,-8.1e-07,0.0,0 STARLINK-5244,1 54199U 22141AU  23160.32245337 -.00000081  00000-0  13011-4 0  9999,2 54199  53.2156 182.8243 0001058  87.3277 272.7836 15.08834975 34606,6917.896,95.438,540.493,539.029,0.0
54199.0,STARLINK-5244,PAYLOAD,2023-06-09 09:19:43,15.08835661,0.000104,53.2157,182.5269,87.25,272.8611,1.4111e-05,-6.3e-07,0.0,0 STARLINK-5244,1 54199U 22141AU  23160.38869303 -.00000063  00000-0  14111-4 0  9992,2 54199  53.2157 182.5269 0001040  87.2500 272.8611 15.08835661 34381,6917.894,95.438,540.478,539.039,0.0
54199.0,STARLINK-5244,PAYLOAD,2023-06-10 10:45:52,15.08841056,0.0001023,53.2158,177.7688,86.4525,273.6585,2.5584e-05,1.19e-06,0.0,0 STARLINK-5244,1 54199U 22141AU  23161.44852937  .00000119  00000-0  25584-4 0  9992,2 54199  53.2158 177.7688 0001023  86.4525 273.6585 15.08841056 34779,6917.877,95.437,540.45,539.034,0.0
54199.0,STARLINK-5244,PAYLOAD,2023-06-10 18:42:48,15.08839703,0.0001012,53.2159,176.2817,86.3087,273.8021,2.9357e-05,1.79e-06,0.0,0 STARLINK-5244,1 54199U 22141AU  23161.77972973  .00000179  00000-0  29357-4 0  9999,2 54199  53.2159 176.2817 0001012  86.3087 273.8021 15.08839703 34591,6917.881,95.438,540.446,539.046,0.0
